[{"OBJECT_NAME":"STARLINK-3594","OBJECT_ID":"2022-022AV","EPOCH":"2026-03-09T04:52:32.118528","MEAN_MOTION":15.08861203,"ECCENTRICITY":0.00014175,"INCLINATION":53.2192,"RA_OF_ASC_NODE":1.3024,"ARG_OF_PERICENTER":91.6222,"MEAN_ANOMALY":268.4932,"EPHEMERIS_TYPE":0,"CLASSIFICATION_TYPE":"U","NORAD_CAT_ID":51895,"ELEMENT_SET_NO":999,"REV_AT_EPOCH":22317,"BSTAR":0.000112297,"MEAN_MOTION_DOT":1.501e-5,"MEAN_MOTION_DDOT":0},{"OBJECT_NAME":"KUIPER-00148","OBJECT_ID":"2025-217H","EPOCH":"2026-03-09T06:36:19.446048","MEAN_MOTION":15.09536529,"ECCENTRICITY":0.00081087,"INCLINATION":51.8794,"RA_OF_ASC_NODE":26.5769,"ARG_OF_PERICENTER":351.8096,"MEAN_ANOMALY":8.2745,"EPHEMERIS_TYPE":0,"CLASSIFICATION_TYPE":"U","NORAD_CAT_ID":65769,"ELEMENT_SET_NO":999,"REV_AT_EPOCH":2507,"BSTAR":0.00098730243,"MEAN_MOTION_DOT":0.00015783,"MEAN_MOTION_DDOT":0}]
