STARLINK-3594           
1 51895U 22022AV  26068.20314952  .00001501  00000+0  11230-3 0  9990
2 51895  53.2192   1.3024 0001417  91.6222 268.4932 15.08861203223170
KUIPER-00148            
1 65769U 25217H   26068.27522507  .00015783  00000+0  98730-3 0  9995
2 65769  51.8794  26.5769 0008108 351.8096   8.2745 15.09536529 25078
